{"results":1,"data":[{"wind":{"degrees":340,"speed_kts":7,"speed_mph":8,"speed_mps":4},"temperature":{"celsius":9,"fahrenheit":48},"dewpoint":{"celsius":7,"fahrenheit":45},"humidity":{"percent":87},"barometer":{"mb":1013.92,"hg":29.94,"kpa":101.39},"visibility":{"miles":"Greater than 6","miles_float":6.21,"meters":"10,000+","meters_float":10000},"ceiling":{"code":"BKN","text":"Broken","feet_agl":3700,"meters_agl":1127.76},"elevation":{"feet":121.39,"meters":37},"location":{"coordinates":[28.8146,40.976898],"type":"Point"},"icao":"LTBA","observed":"2019-04-01T05:20:00.000Z","raw_text":"LTBA 010520Z 34007KT 9999 FEW016 BKN037 09/07 Q1014 NOSIG RMK RWY17L VRB04KT RWY05 34005KT 310V010 RWY23 01003KT 300V070","station":{"name":"Atatürk International"},"clouds":[{"code":"FEW","text":"Few","base_feet_agl":1600,"base_meters_agl":487.68},{"code":"BKN","text":"Broken","base_feet_agl":3700,"base_meters_agl":1127.76}],"flight_category":"VFR","conditions":[]}]}